NORAD_CAT_ID,OBJECT_NAME,OBJECT_TYPE,EPOCH,MEAN_MOTION,ECCENTRICITY,INCLINATION,RA_OF_ASC_NODE,ARG_OF_PERICENTER,MEAN_ANOMALY,BSTAR,MEAN_MOTION_DOT,MEAN_MOTION_DDOT,TLE_LINE0,TLE_LINE1,TLE_LINE2,SEMIMAJOR_AXIS,PERIOD,APOGEE,PERIGEE,DECAYED
49450.0,STARLINK-3127,PAYLOAD,2021-12-22 14:00:01,15.73194362,0.0002275,53.2179,299.7432,25.9734,181.063,0.00011562,0.00015633,0.0,0 STARLINK-3127,1 49450U 21104AU  21356.58334491  .00015633  00000-0  11562-3 0  9990,2 49450  53.2179 299.7432 0002275  25.9734 181.0630 15.73194362  3668,6727.911,91.534,351.307,348.246,0.0
49450.0,STARLINK-3127,PAYLOAD,2021-12-22 20:00:01,15.73223467,0.000222,53.218,298.5055,31.9506,151.7752,-0.00024617,-0.00035065,0.0,0 STARLINK-3127,1 49450U 21104AU  21356.83334491 -.00035065  00000-0 -24617-3 0  9996,2 49450  53.2180 298.5055 0002220  31.9506 151.7752 15.73223467  7462,6727.828,91.532,351.18699999999984,348.2,0.0
49450.0,STARLINK-3127,PAYLOAD,2021-12-22 22:00:00,15.73224728,0.0002273,53.2181,298.0936,32.1236,263.8385,-0.0003443,-0.0004872,0.0,0 STARLINK-3127,1 49450U 21104AU  21356.91667824 -.00048720  00000-0 -34430-3 0  9990,2 49450  53.2181 298.0936 0002273  32.1236 263.8385 15.73224728  3696,6727.825,91.532,351.219,348.16,0.0
49450.0,STARLINK-3127,PAYLOAD,2021-12-23 06:00:00,15.7318974,0.0002526,53.2182,296.4462,30.2153,354.6922,0.00041195,0.00057571,0.0,0 STARLINK-3127,1 49450U 21104AU  21357.25001157  .00057571  00000-0  41195-3 0  9997,2 49450  53.2182 296.4462 0002526  30.2153 354.6922 15.73189740  7527,6727.924,91.534,351.48900000000015,348.09,0.0
49450.0,STARLINK-3127,PAYLOAD,2021-12-23 14:00:01,15.73194668,0.0002245,53.2181,294.795,27.9911,85.8658,4.2593e-05,5.359e-05,0.0,0 STARLINK-3127,1 49450U 21104AU  21357.58334491  .00005359  00000-0  42593-4 0  9994,2 49450  53.2181 294.7950 0002245  27.9911  85.8658 15.73194668  7571,6727.91,91.533,351.286,348.265,0.0
49450.0,STARLINK-3127,PAYLOAD,2021-12-23 22:00:00,15.73233151,0.0002179,53.2179,293.1459,29.3563,173.40599999999995,-0.00017048,-0.00024514,0.0,0 STARLINK-3127,1 49450U 21104AU  21357.91667824 -.00024514  00000-0 -17048-3 0  9992,2 49450  53.2179 293.1459 0002179  29.3563 173.4060 15.73233151  3691,6727.801,91.531,351.13199999999995,348.2,0.0
49450.0,STARLINK-3127,PAYLOAD,2021-12-24 06:00:00,15.72888744,0.0002502,53.2174,291.49,34.1174,257.685,0.0022143,0.00317947,0.0,0 STARLINK-3127,1 49450U 21104AU  21358.25001157  .00317947  00000-0  22143-2 0  9995,2 49450  53.2174 291.4900 0002502  34.1174 257.6850 15.72888744  7688,6728.783,91.551,352.331,348.964,0.0
49450.0,STARLINK-3127,PAYLOAD,2021-12-24 14:00:01,15.73193331,0.0002115,53.2171,289.8467,27.5069,353.1969,0.00039376,0.00054991,0.0,0 STARLINK-3127,1 49450U 21104AU  21358.58334491  .00054991  00000-0  39376-3 0  9995,2 49450  53.2171 289.8467 0002115  27.5069 353.1969 15.73193331  7734,6727.9140000000025,91.534,351.202,348.356,0.0
49450.0,STARLINK-3127,PAYLOAD,2021-12-24 22:00:00,15.73256283,0.0002185,53.2172,288.1975,30.4309,79.1985,-0.00072663,-0.00101633,0.0,0 STARLINK-3127,1 49450U 21104AU  21358.91667824 -.00101633  00000-0 -72663-3 0  9995,2 49450  53.2172 288.1975 0002185  30.4309  79.1985 15.73256283  7782,6727.735,91.53,351.07,348.13,0.0
49450.0,STARLINK-3127,PAYLOAD,2021-12-25 14:00:01,15.73157012,0.0002156,53.2173,284.8984,28.8695,258.6136,0.00046704,0.00065319,0.0,0 STARLINK-3127,1 49450U 21104AU  21359.58334491  .00065319  00000-0  46704-3 0  9995,2 49450  53.2173 284.8984 0002156  28.8695 258.6136 15.73157012  7897,6728.018,91.536,351.333,348.432,0.0
49450.0,STARLINK-3127,PAYLOAD,2021-12-25 22:00:00,15.73210984,0.0002199,53.217,283.2493,30.3128,346.0491,3.3838000000000004e-05,4.132e-05,0.0,0 STARLINK-3127,1 49450U 21104AU  21359.91667824  .00004132  00000-0  33838-4 0  9992,2 49450  53.2170 283.2493 0002199  30.3128 346.0491 15.73210984  3696,6727.864000000001,91.533,351.208,348.249,0.0
49450.0,STARLINK-3127,PAYLOAD,2021-12-26 06:00:02,15.73228437,0.0002329,53.2164,281.6013,26.7049,78.6803,-3.5873000000000016e-06,-1.126e-05,0.0,0 STARLINK-3127,1 49450U 21104AU  21360.25002315 -.00001126  00000-0 -35873-5 0  9993,2 49450  53.2164 281.6013 0002329  26.7049  78.6803 15.73228437  7999,6727.814,91.532,351.246,348.112,0.0
49450.0,STARLINK-3127,PAYLOAD,2021-12-26 14:00:01,15.73179238,0.0001994,53.2163,279.9497,25.6192,168.6696,0.00047728,0.0006684,0.0,0 STARLINK-3127,1 49450U 21104AU  21360.58334491  .00066840  00000-0  47728-3 0  9994,2 49450  53.2163 279.9497 0001994  25.6192 168.6696 15.73179238  3662,6727.954000000002,91.534,351.161,348.478,0.0
49450.0,STARLINK-3127,PAYLOAD,2021-12-26 22:00:00,15.73273286,0.0001992,53.2166,278.3009,26.1644,257.0463,-0.00078349,-0.00109512,0.0,0 STARLINK-3127,1 49450U 21104AU  21360.91667824 -.00109512  00000-0 -78349-3 0  9999,2 49450  53.2166 278.3009 0001992  26.1644 257.0463 15.73273286  3699,6727.686,91.529,350.891,348.211,0.0
49450.0,STARLINK-3127,PAYLOAD,2021-12-27 06:00:00,15.73164061,0.0002221,53.2165,276.6527,23.715,348.475,8.0235e-05,0.00010637,0.0,0 STARLINK-3127,1 49450U 21104AU  21361.25001157  .00010637  00000-0  80235-4 0  9993,2 49450  53.2165 276.6527 0002221  23.7150 348.4750 15.73164061  8155,6727.998000000001,91.535,351.357,348.36800000000005,0.0
49450.0,STARLINK-3127,PAYLOAD,2021-12-27 14:00:01,15.73140114,0.0002037,53.2167,275.0012,28.8506,72.2283,0.00054237,0.00075996,0.0,0 STARLINK-3127,1 49450U 21104AU  21361.58334491  .00075996  00000-0  54237-3 0  9990,2 49450  53.2167 275.0012 0002037  28.8506  72.2283 15.73140114  3695,6728.066,91.537,351.301,348.56,0.0
49450.0,STARLINK-3127,PAYLOAD,2021-12-27 22:00:00,15.73202059,0.0002162,53.2167,273.3525,30.9893,158.9676,6.2453e-05,8.153e-05,0.0,0 STARLINK-3127,1 49450U 21104AU  21361.91667824  .00008153  00000-0  62453-4 0  9997,2 49450  53.2167 273.3525 0002162  30.9893 158.9676 15.73202059  3681,6727.889,91.533,351.209,348.3,0.0
49450.0,STARLINK-3127,PAYLOAD,2021-12-28 06:00:00,15.73231049,0.0002241,53.2161,271.7041,26.3614,252.5403,0.00011292,0.00015277,0.0,0 STARLINK-3127,1 49450U 21104AU  21362.25001157  .00015277  00000-0  11292-3 0  9995,2 49450  53.2161 271.7041 0002241  26.3614 252.5403 15.73231049  8313,6727.807,91.531,351.17900000000014,348.164,0.0
49450.0,STARLINK-3127,PAYLOAD,2021-12-28 14:00:01,15.73171443,0.0001892,53.2161,270.0524,28.1359,339.7484,0.00046043,0.00064418,0.0,0 STARLINK-3127,1 49450U 21104AU  21362.58334491  .00064418  00000-0  46043-3 0  9994,2 49450  53.2161 270.0524 0001892  28.1359 339.7484 15.73171443  8361,6727.977,91.535,351.115,348.569,0.0
49450.0,STARLINK-3127,PAYLOAD,2021-12-28 22:00:00,15.73267483,0.0001935,53.2164,268.4038,24.1908,72.6195,-0.00064002,-0.00089757,0.0,0 STARLINK-3127,1 49450U 21104AU  21362.91667824 -.00089757  00000-0 -64002-3 0  9990,2 49450  53.2164 268.4038 0001935  24.1908  72.6195 15.73267483  3681,6727.703,91.529,350.87,348.266,0.0
49450.0,STARLINK-3127,PAYLOAD,2021-12-29 06:00:02,15.732307,0.000224,53.2164,266.7552,26.4956,159.3818,-0.00026181,-0.00037255,0.0,0 STARLINK-3127,1 49450U 21104AU  21363.25002315 -.00037255  00000-0 -26181-3 0  9998,2 49450  53.2164 266.7552 0002240  26.4956 159.3818 15.73230700  8470,6727.808000000001,91.531,351.18,348.166,0.0
49450.0,STARLINK-3127,PAYLOAD,2021-12-29 14:00:01,15.731634,0.0002025,53.2167,265.1036,27.5866,247.2427,0.00056494,0.00079295,0.0,0 STARLINK-3127,1 49450U 21104AU  21363.58335648  .00079295  00000-0  56494-3 0  9990,2 49450  53.2167 265.1036 0002025  27.5866 247.2427 15.73163400  3713,6728.0,91.535,351.227,348.50199999999984,0.0
49450.0,STARLINK-3127,PAYLOAD,2021-12-29 21:59:06,15.73228311,0.000201,53.2167,263.4557,28.4401,331.6729,0.0001963,0.00027052,0.0,0 STARLINK-3127,1 49450U 21104AU  21363.91605099  .00027052  00000-0  19630-3 0  9992,2 49450  53.2167 263.4557 0002010  28.4401 331.6729 15.73228311  7766,6727.814,91.532,351.032,348.327,0.0
49450.0,STARLINK-3127,PAYLOAD,2021-12-30 14:00:01,15.73159603,0.0002017,53.2161,260.1553,32.2583,149.2334,5.7214e-05,7.402e-05,0.0,0 STARLINK-3127,1 49450U 21104AU  21364.58334491  .00007402  00000-0  57214-4 0  9999,2 49450  53.2161 260.1553 0002017  32.2583 149.2334 15.73159603  3680,6728.01,91.536,351.232,348.51800000000014,0.0
49450.0,STARLINK-3127,PAYLOAD,2021-12-30 22:00:01,15.73176802,0.0002114,53.2164,258.5074,30.6965,239.7482,8.709399999999999e-05,0.00011608,0.0,0 STARLINK-3127,1 49450U 21104AU  21364.91668981  .00011608  00000-0  87094-4 0  9992,2 49450  53.2164 258.5074 0002114  30.6965 239.7482 15.73176802  8736,6727.9609999999975,91.535,351.249,348.404,0.0
49450.0,STARLINK-3127,PAYLOAD,2021-12-30 22:22:48,15.73190291,0.0001327,53.2167,258.4271,44.0942,316.0184,3.4286e-05,4.192e-05,0.0,0 STARLINK-3127,1 49450U 21104AU  21364.93251011  .00004192  00000-0  34286-4 0  9991,2 49450  53.2167 258.4271 0001327  44.0942 316.0184 15.73190291  7922,6727.9230000000025,91.534,350.681,348.895,0.0
49450.0,STARLINK-3127,PAYLOAD,2021-12-31 14:00:01,15.73213482,0.0002,53.2166,255.2073,30.2315,57.9718,-3.3463e-05,-5.318e-05,0.0,0 STARLINK-3127,1 49450U 21104AU  21365.58334491 -.00005318  00000-0 -33463-4 0  9996,2 49450  53.2166 255.2073 0002000  30.2315  57.9718 15.73213482  3698,6727.857,91.532,351.06699999999995,348.376,0.0
49450.0,STARLINK-3127,PAYLOAD,2021-12-31 21:15:01,15.73216874,0.0001745,53.2164,253.7119,39.5088,320.6059,0.00016302,0.00022336,0.0,0 STARLINK-3127,1 49450U 21104AU  21365.88543777  .00022336  00000-0  16302-3 0  9997,2 49450  53.2164 253.7119 0001745  39.5088 320.6059 15.73216874  8077,6727.847,91.532,350.886,348.538,0.0
49450.0,STARLINK-3127,PAYLOAD,2022-01-01 06:00:00,15.73189526,0.000216,53.2157,251.9103,24.686,241.3543,0.00013397,0.00018214,0.0,0 STARLINK-3127,1 49450U 21104AU  22001.25001157  .00018214  00000-0  13397-3 0  9998,2 49450  53.2157 251.9103 0002160  24.6860 241.3543 15.73189526  8943,6727.925,91.534,351.24300000000005,348.337,0.0
